1 45465U 20022B   22282.46846427 -.00000320  00000-0  00000-0 0  9993
2 45465   5.6869 301.9651 0046607 357.5984  24.9242  1.00273477  9518